{
    "links": {
        "self": "http://www.neowsapp.com/rest/v1/neo/3799841?api_key=iIulBulltgU6a56xZRHN4H3l9WmuAYTsLGpBGhQ2"
    },
    "id": "3799841",
    "neo_reference_id": "3799841",
    "name": "(2018 EL2)",
    "designation": "2018 EL2",
    "nasa_jpl_url": "http://ssd.jpl.nasa.gov/sbdb.cgi?sstr=3799841",
    "absolute_magnitude_h": 24.6,
    "estimated_diameter": {
        "kilometers": {
            "estimated_diameter_min": 0.0319561887,
            "estimated_diameter_max": 0.0714562102
        },
        "meters": {
            "estimated_diameter_min": 31.9561886721,
            "estimated_diameter_max": 71.4562101727
        },
        "miles": {
            "estimated_diameter_min": 0.0198566489,
            "estimated_diameter_max": 0.0444008168
        },
        "feet": {
            "estimated_diameter_min": 104.8431420431,
            "estimated_diameter_max": 234.436392583
        }
    },
    "is_potentially_hazardous_asteroid": false,
    "close_approach_data": [
        {
            "close_approach_date": "2018-03-10",
            "close_approach_date_full": "2018-Mar-10 23:21",
            "epoch_date_close_approach": 1520724060000,
            "relative_velocity": {
                "kilometers_per_second": "4.7246989369",
                "kilometers_per_hour": "17008.9161728975",
                "miles_per_hour": "10568.6790519874"
            },
            "miss_distance": {
                "astronomical": "0.1584993056",
                "lunar": "61.6562298784",
                "kilometers": "23711158.514239072",
                "miles": "14733430.7024883136"
            },
            "orbiting_body": "Earth"
        }
    ],
    "orbital_data": {
        "orbit_id": "2",
        "orbit_determination_date": "2018-03-19 06:26:34",
        "first_observation_date": "2018-02-12",
        "last_observation_date": "2018-03-18",
        "data_arc_in_days": 34,
        "observations_used": 24,
        "orbit_uncertainty": "6",
        "minimum_orbit_intersection": ".157735",
        "jupiter_tisserand_invariant": "3.357",
        "epoch_osculation": "2459000.5",
        "eccentricity": ".5139817287691461",
        "semi_major_axis": "2.359613256843528",
        "inclination": "4.219511006811429",
        "ascending_node_longitude": "141.9760128726365",
        "orbital_period": "1323.913674874353",
        "perihelion_distance": "1.146815155864496",
        "perihelion_argument": "27.87198630551136",
        "aphelion_distance": "3.572411357822559",
        "perihelion_time": "2459512.415112566175",
        "mean_anomaly": "220.799503758194",
        "mean_motion": ".2719210525823491",
        "equinox": "J2000",
        "orbit_class": {
            "orbit_class_type": "AMO",
            "orbit_class_description": "Near-Earth asteroid orbits similar to that of 1221 Amor",
            "orbit_class_range": "1.017 AU < q (perihelion) < 1.3 AU"
        }
    },
    "is_sentry_object": false
}